ORBCOMM FM114           
1 41179U 15081A   24200.87113535  .00002633  00000+0  61869-3 0  9994
2 41179  47.0029  59.6545 0001888 252.3873 107.6806 14.56866561455847
ORBCOMM FM119           
1 41180U 15081B   24200.84516377  .00001952  00000+0  46927-3 0  9995
2 41180  47.0025 328.9977 0001918 294.3709  65.6976 14.56758782457099
ORBCOMM FM105           
1 41181U 15081C   24200.64751794  .00000915  00000+0  30775-3 0  9990
2 41181  47.0026 303.1939 0002659 263.7041  96.3536 14.44483793452515
ORBCOMM FM110           
1 41182U 15081D   24200.84902871  .00002658  00000+0  62468-3 0  9997
2 41182  47.0019  59.1679 0001325  79.4622 280.6412 14.56832577455710
ORBCOMM FM118           
1 41183U 15081E   24200.89532596  .00002348  00000+0  55598-3 0  9998
2 41183  47.0040  59.2742 0001537  73.3388 286.7666 14.56837332455828
ORBCOMM FM112           
1 41184U 15081F   24200.82200061  .00002970  00000+0  69461-3 0  9996
2 41184  46.9999 328.3085 0002373 277.0544  83.0071 14.56753987457032
ORBCOMM FM113           
1 41185U 15081G   24200.79928330  .00002857  00000+0  66962-3 0  9996
2 41185  47.0016 328.6942 0001931 284.4023  75.6648 14.56752354457015
